<?xml version="1.0" encoding="UTF-8"?>
<kml xmlns="http://www.opengis.net/kml/2.2" xmlns:gx="http://www.google.com/kml/ext/2.2" xmlns:kml="http://www.opengis.net/kml/2.2" xmlns:atom="http://www.w3.org/2005/Atom">
<Document>
	<name>Sanjay park 1 to 3</name>
	<gx:CascadingStyle kml:id="__managed_style_1191F6332A3ED1C8FE4D">
		<Style>
			<IconStyle>
				<Icon>
					<href>https://earth.google.com/earth/document/icon?color=1976d2&amp;id=2000&amp;scale=4</href>
				</Icon>
				<hotSpot x="64" y="128" xunits="pixels" yunits="insetPixels"/>
			</IconStyle>
			<LabelStyle>
			</LabelStyle>
			<LineStyle>
				<color>ff2dc0fb</color>
				<width>1.333</width>
			</LineStyle>
			<PolyStyle>
				<color>40ffffff</color>
			</PolyStyle>
			<BalloonStyle>
				<displayMode>hide</displayMode>
			</BalloonStyle>
		</Style>
	</gx:CascadingStyle>
	<gx:CascadingStyle kml:id="__managed_style_2E8B83373A3ED1C8FE4D">
		<Style>
			<IconStyle>
				<scale>1.2</scale>
				<Icon>
					<href>https://earth.google.com/earth/document/icon?color=1976d2&amp;id=2000&amp;scale=4</href>
				</Icon>
				<hotSpot x="64" y="128" xunits="pixels" yunits="insetPixels"/>
			</IconStyle>
			<LabelStyle>
			</LabelStyle>
			<LineStyle>
				<color>ff2dc0fb</color>
				<width>1.9995</width>
			</LineStyle>
			<PolyStyle>
				<color>40ffffff</color>
			</PolyStyle>
			<BalloonStyle>
				<displayMode>hide</displayMode>
			</BalloonStyle>
		</Style>
	</gx:CascadingStyle>
	<StyleMap id="__managed_style_0AF95E17B03ED1C8FE4D">
		<Pair>
			<key>normal</key>
			<styleUrl>#__managed_style_1191F6332A3ED1C8FE4D</styleUrl>
		</Pair>
		<Pair>
			<key>highlight</key>
			<styleUrl>#__managed_style_2E8B83373A3ED1C8FE4D</styleUrl>
		</Pair>
	</StyleMap>
	<Placemark id="07C3CA91863BE4DCA987">
		<name>Sanjay park 1 to 3</name>
		<LookAt>
			<longitude>73.90623971842994</longitude>
			<latitude>18.56908097576822</latitude>
			<altitude>586.2643837536955</altitude>
			<heading>90.99966729822879</heading>
			<tilt>0</tilt>
			<gx:fovy>35</gx:fovy>
			<range>1601.033282930148</range>
			<altitudeMode>absolute</altitudeMode>
		</LookAt>
		<styleUrl>#__managed_style_0AF95E17B03ED1C8FE4D</styleUrl>
		<LineString>
			<coordinates>
				73.90095170005057,18.57218830004664,0 73.90095170005057,18.57218830004664,0 73.90095170005057,18.57218830004664,0 73.90095170005057,18.57218830004664,0 73.90093170291063,18.57211331068574,0 73.90089500005571,18.57201670001157,0 73.90086313960515,18.57193537503537,0 73.90086170002233,18.57193170000429,0 73.90086670003154,18.57188500003801,0 73.90086670003154,18.57188500003801,0 73.90092670020404,18.5718867000027,0 73.90104169997785,18.57188669999326,0 73.90104169997785,18.57188669999326,0 73.90118830001725,18.57189499998903,0 73.90133998563959,18.5719016994762,0 73.90133999994119,18.5719017000679,0 73.90146830019998,18.57191000002532,0 73.90148742477818,18.57190953238094,0 73.90160330021079,18.57190669999558,0 73.90169512506654,18.57190552987888,0 73.90173670003799,18.57190500002916,0 73.90182759644594,18.57190702270317,0 73.90188499995837,18.5719083000106,0 73.9020116921365,18.57190683438586,0 73.90202330002138,18.57190670004295,0 73.90212272888719,18.57192658577983,0 73.90212329997442,18.57192670004232,0 73.90220499996549,18.57194330022882,0 73.90220499996549,18.57194330022882,0 73.90230999992784,18.57195330014366,0 73.90241413701938,18.57194578395582,0 73.90242499995747,18.57194500001854,0 73.90251000002101,18.57193670001543,0 73.90251000002101,18.57193670001543,0 73.90251000002101,18.57193670001543,0 73.90260330025539,18.5719399999391,0 73.90260330025539,18.5719399999391,0 73.90270499997997,18.57194830008597,0 73.90270499997997,18.57194830008597,0 73.90281170019163,18.57195329998245,0 73.9028244660684,18.57195560847448,0 73.90293170002029,18.57197500015609,0 73.90305822954133,18.57198127970693,0 73.90306669999181,18.57198169993626,0 73.90306669999181,18.57198169993626,0 73.90321169999767,18.57199999998536,0 73.90321169999767,18.57199999998536,0 73.90337496593779,18.57200329919442,0 73.90337500018168,18.57200329997631,0 73.90346246202391,18.57201314913912,0 73.90352330021297,18.57202000002397,0 73.90352330021297,18.57202000002397,0 73.90364000048969,18.57201420820168,0 73.90365829999141,18.57201330005262,0 73.90365829999141,18.57201330005262,0 73.90380291686176,18.57201998233096,0 73.90380329991851,18.57202000016713,0 73.90381889465412,18.57201933318004,0 73.90396000000659,18.57201330001978,0 73.90396000000659,18.57201330001978,0 73.90410329979822,18.57201949420524,0 73.90411499993944,18.57202000017212,0 73.90411499993944,18.57202000017212,0 73.90428985508116,18.57202821322749,0 73.90429169998977,18.57202829990984,0 73.90429715370267,18.57202853567577,0 73.90444669962174,18.57203500003746,0 73.90444670005478,18.57203500007972,0 73.9045467000266,18.57203500001043,0 73.9045467000266,18.57203500001043,0 73.9045467000266,18.57203500001043,0 73.90452518959016,18.57204148669597,0 73.90442499997341,18.57207169998924,0 73.90430329996741,18.5720699999932,0 73.90430329996741,18.5720699999932,0 73.90417169998122,18.57207169996482,0 73.90416377270854,18.57207077394905,0 73.90404330009815,18.57205670007629,0 73.90394344294711,18.57204367518919,0 73.90392830006769,18.57204169999995,0 73.90387819055566,18.57204246365801,0 73.90382330005961,18.57204329999401,0 73.90382330005961,18.57204329999401,0 73.90371499999399,18.57203170008467,0 73.90371499999399,18.57203170008467,0 73.90358170008506,18.57203670003943,0 73.90358170008506,18.57203670003943,0 73.90345116748527,18.57202035910837,0 73.90344830023312,18.57202000000712,0 73.90329718942532,18.57200504844001,0 73.90329669981708,18.57200499994105,0 73.90315546736754,18.57199854977771,0 73.90315000002103,18.57199829996674,0 73.90299506564122,18.57199170284187,0 73.90299499999595,18.57199170003115,0 73.90285170001594,18.57198500000547,0 73.90285170001594,18.57198500000547,0 73.90273999979934,18.57196500006825,0 73.90273999979934,18.57196500006825,0 73.90261332616925,18.57195000309796,0 73.90261330007547,18.5719499999915,0 73.90251170180581,18.57193000034199,0 73.90251170002918,18.57192999998274,0 73.90251170002918,18.57192999998274,0 73.90251170002918,18.57192999998274,0 73.90250000007559,18.57180830003881,0 73.90250000007559,18.57180830003881,0 73.902523300026,18.57169830007852,0 73.902523300026,18.57169830007852,0 73.90252829991613,18.57161670020466,0 73.90253458311771,18.57155558905517,0 73.90253669994694,18.57153500003539,0 73.9025582999913,18.57145170026908,0 73.90259961892771,18.57135366443643,0 73.90261170002039,18.57132500001717,0 73.90266825849793,18.57119679377629,0 73.90266829993702,18.57119669999058,0 73.9027016999519,18.57108330001683,0 73.90271646815951,18.57106361627943,0 73.90277169998633,18.57099000003335,0 73.90283000002849,18.57091169979212,0 73.90283000002849,18.57091169979212,0 73.90283000002849,18.57091169979212,0 73.90283170001641,18.57083830002955,0 73.90289170012939,18.57080329988962,0 73.90289170012939,18.57080329988962,0 73.90289170012939,18.57080329988962,0 73.90285277023216,18.57090349502277,0 73.90284830005079,18.57091499990004,0 73.90278169995298,18.57101500000189,0 73.90278169990856,18.57101500010557,0 73.90271670003233,18.5711149999512,0 73.90265500020539,18.57122669973267,0 73.90265500002771,18.571226699944,0 73.90252999997834,18.57147000000355,0 73.90246000002735,18.57150000008856,0 73.90238688902177,18.57149841258636,0 73.90238170004051,18.57149830007087,0 73.90226376379468,18.57149830008298,0 73.90226330001325,18.57149830004147,0 73.90210499999419,18.57148500017789,0 73.90204862795061,18.57147528070044,0 73.90196000006065,18.57146000004672,0 73.90196000006065,18.57146000004672,0 73.9018218466787,18.57146000004806,0 73.90182169997603,18.5714600000057,0 73.90168808639949,18.5714534514392,0 73.90168500022536,18.57145330004229,0 73.90158915513753,18.57144855449621,0 73.90155169997877,18.57144669997549,0 73.90155169997877,18.57144669997549,0 73.90141008037028,18.57143670572915,0 73.90140999980152,18.57143670002347,0 73.90123016927039,18.57142092279591,0 73.90116829998438,18.57141670005636,0 73.90116829998438,18.57141670005636,0 73.90116829998438,18.57141670005636,0 73.90107000003088,18.5714133000797,0 73.90106875803308,18.57141317125532,0 73.90099000004507,18.57140499997681,0 73.90092500001197,18.57140170017651,0 73.90092500001197,18.57140170017651,0 73.90092500001197,18.57140170017651,0 73.90092500001197,18.57140170017651,0 73.90104829996417,18.57141500003443,0 73.90125500021064,18.57144000000021,0 73.90131824823413,18.5713850449265,0 73.90131830006635,18.57138500004123,0 73.90132669992506,18.57131000001005,0 73.90133897692925,18.57123729950236,0 73.90134329995132,18.57121170007197,0 73.90137499991795,18.57111830008695,0 73.90138774789226,18.57107652962374,0 73.90140499991591,18.57102000000608,0 73.90140499991591,18.57102000000608,0 73.90142499997386,18.57091499995692,0 73.90143318040332,18.5708968124624,0 73.90145500003059,18.57084829981097,0 73.90146522505648,18.5707933578334,0 73.90147669981735,18.57073169996712,0 73.9014804274405,18.57070132024643,0 73.90148999992019,18.57062329996237,0 73.90147713572773,18.57056618298647,0 73.90147499998014,18.57055669998212,0 73.9014331560782,18.57053708719081,0 73.90139669989421,18.57052000004884,0 73.90135531579776,18.57051247564227,0 73.90128669980571,18.57049999999183,0 73.90118499977855,18.57048499999253,0 73.90111829996997,18.57048500001716,0 73.90111829996997,18.57048500001716,0 73.90111829996997,18.57048500001716,0 73.901062202384,18.57053951182862,0 73.90106169998398,18.57054000002938,0 73.90104670004544,18.57062830003327,0 73.90103670000971,18.57068499994475,0 73.90103670000971,18.57068499994475,0 73.90101499996244,18.57077170000299,0 73.90101499996244,18.57077170000299,0 73.90098669990221,18.57088330000433,0 73.90097089726513,18.57093160350539,0 73.90095170006479,18.57104669993406,0 73.90094183127491,18.57110255641122,0 73.90093670004497,18.57118500022034,0 73.90093670004497,18.57118500022034,0 73.90093670004497,18.57118500022034,0 73.90096499998511,18.57109500005449,0 73.90098379554394,18.57103303437991,0 73.90099329999488,18.57100169998624,0 73.90101670006824,18.57087829998344,0 73.90104000018101,18.57073169981699,0 73.90110325748707,18.57058180061671,0 73.90114079398698,18.57049322498385,0 73.90114499999694,18.57048330001643,0 73.90114499999694,18.57048330001643,0 73.90123507581927,18.57045327467885,0 73.90125000004875,18.57044830006476,0 73.90136169996831,18.57046499996596,0 73.90136327967394,18.57046595351293,0 73.90145830019659,18.57052330001136,0 73.90151669993055,18.57056830002449,0 73.90156500017457,18.5705833000632,0 73.90164829995979,18.57060500022135,0 73.90164829995979,18.57060500022135,0 73.90176499995569,18.5706600000327,0 73.90187999989574,18.57071829989618,0 73.90190689469094,18.57073568064511,0 73.90195999995129,18.57076999999748,0 73.90205669993908,18.57081999995484,0 73.90205669993908,18.57081999995484,0 73.9021649999053,18.57088170001966,0 73.9022345148378,18.57097107633366,0 73.90223499993992,18.57097169999297,0 73.90221170006573,18.57108329999763,0 73.90219178856569,18.57111797477388,0 73.90215330007845,18.57118500002155,0 73.90210221759078,18.57126937051224,0 73.90208669987865,18.57129500011831,0 73.90205999995136,18.57139669998791,0 73.90210670000359,18.57146670017369,0 73.90210670000359,18.57146670017369,0 73.90224000019681,18.57148830000421,0 73.90238000004557,18.57149830023778,0 73.90248999996381,18.57148829993671,0 73.90258330001642,18.57150330002708,0 73.90258330001642,18.57150330002708,0 73.90269500021839,18.57151669996177,0 73.90269500021839,18.57151669996177,0 73.90276508744041,18.5715212340532,0 73.90282330000832,18.57152500009801,0 73.90282330000832,18.57152500009801,0 73.90295792059997,18.57154713600733,0 73.90296500017786,18.57154830001159,0 73.90296500017786,18.57154830001159,0 73.90308403588261,18.57156486580665,0 73.90308499999908,18.57156500004099,0 73.90308499999908,18.57156500004099,0 73.90321669975759,18.57157330016769,0 73.90321669975759,18.57157330016769,0 73.90334204870382,18.57157627411278,0 73.90336000000997,18.57157670001198,0 73.90336000000997,18.57157670001198,0 73.90349624870817,18.57157099463955,0 73.90352000003605,18.57157000003861,0 73.90364830001459,18.57157669997426,0 73.90369225272988,18.57158329291422,0 73.90374829999541,18.57159170006636,0 73.90380829995601,18.57164500016277,0 73.90385669995226,18.57168500003253,0 73.90385669995226,18.57168500003253,0 73.90385669995226,18.57168500003253,0 73.90385669995226,18.57168500003253,0 73.90385669995226,18.57168500003253,0 73.90385354006823,18.57168255526262,0 73.90380500004119,18.57164499994808,0 73.90380500004119,18.57164499994808,0 73.90380500004119,18.57164499994808,0 73.90381329996575,18.5715382999881,0 73.90381329996575,18.5715382999881,0 73.90385500001389,18.57145830006376,0 73.90385500001389,18.57145830006376,0 73.90389169991957,18.57138169999288,0 73.90389169991957,18.57138169999288,0 73.90394669998032,18.57135829997591,0 73.90394669998032,18.57135829997591,0 73.90401000000791,18.57138830005988,0 73.90401000000791,18.57138830005988,0 73.90411330018019,18.57141170008685,0 73.90411330018019,18.57141170008685,0 73.90422329989848,18.57147670024099,0 73.90422329989848,18.57147670024099,0 73.90435133628823,18.57154311133748,0 73.90435170002483,18.57154330021958,0 73.90447032275202,18.57159074905864,0 73.90447669992406,18.5715933000448,0 73.90456087066987,18.57161560584624,0 73.9045650000229,18.57161670000053,0 73.90462148902087,18.57163443164161,0 73.9046233000212,18.5716350000195,0 73.90468721826208,18.57165233798062,0 73.90470329992233,18.57165670013208,0 73.9047291549317,18.57165712032295,0 73.90480170003572,18.57165830005946,0 73.90486096505326,18.57167074965708,0 73.90490499994047,18.57168000002552,0 73.90490499994047,18.57168000002552,0 73.90502829968473,18.57167830019054,0 73.90502829999564,18.5716783002328,0 73.90513880131174,18.57167699037154,0 73.90516330003091,18.57167670008297,0 73.90516463579051,18.57167685760544,0 73.90526169999805,18.57168830016912,0 73.90526169999805,18.57168830016912,0 73.90532669995184,18.57168670018073,0 73.9053917000377,18.57166500003245,0 73.9053917000377,18.57166500003245,0 73.9053917000377,18.57166500003245,0 73.90541999998906,18.57160170003199,0 73.90541999998906,18.57160170003199,0 73.90539329998148,18.57148670003944,0 73.90539329998148,18.57148670003944,0 73.90538169993596,18.57133000001298,0 73.90538169993596,18.57133000001298,0 73.90535669999431,18.57120830007347,0 73.90535052093387,18.57113147674243,0 73.90535000001455,18.57112500003406,0 73.90535000001455,18.57112500003406,0 73.90534169994359,18.57107999999651,0 73.90532391919017,18.57102673949968,0 73.90531999995848,18.57101499997175,0 73.90529500039229,18.57094670103697,0 73.90529499992593,18.57094670002262,0 73.90528670000612,18.5708432998295,0 73.90528096898294,18.57079554135363,0 73.90526670003933,18.5707267000205,0 73.90526670003933,18.5707267000205,0 73.90526670003933,18.5707267000205,0 73.90526670003933,18.5707267000205,0 73.90528670008288,18.5707732999443,0 73.90528670008288,18.5707732999443,0 73.90529597216337,18.57081150559536,0 73.90530329993923,18.57084169998403,0 73.90531670010223,18.57091169991779,0 73.90531670010223,18.57091169991779,0 73.90534830007016,18.57100669988698,0 73.905350423767,18.57102776094295,0 73.90535669982759,18.57108999999721,0 73.90535170777642,18.57123477733146,0 73.90535169998157,18.57123500002495,0 73.90534830002392,18.57135830000261,0 73.90534968334879,18.57136759129501,0 73.90536169998825,18.57144829998572,0 73.90541000003512,18.57158830017857,0 73.90541000003512,18.57158830017857,0 73.90541000003512,18.57158830017857,0 73.90540158965942,18.57162668527079,0 73.90539829997434,18.57164169997977,0 73.90539829997434,18.57164169997977,0 73.90524218146957,18.57163671547237,0 73.9052416998109,18.57163670004538,0 73.90510717326418,18.57163998853209,0 73.90510670001102,18.57164000002746,0 73.90503000034956,18.57160330012398,0 73.90503000006365,18.57160329995492,0 73.9050125819119,18.571531914178,0 73.90501169991292,18.57152830002897,0 73.90499886720872,18.57143578899825,0 73.90499829993422,18.57143170004485,0 73.90499674095395,18.57142232845273,0 73.90497999982442,18.57132170006637,0 73.90497999982442,18.57132170006637,0 73.90496832889522,18.57122693438684,0 73.90496830002515,18.57122669981696,0 73.90495504575505,18.57115694086075,0 73.90495500000735,18.57115670000398,0 73.90493670000689,18.57109670022603,0 73.90493670000689,18.57109670022603,0 73.90493670000689,18.57109670022603,0 73.90490506232751,18.57100348401534,0 73.90490499992414,18.57100329999425,0 73.90490320502985,18.57097383116763,0 73.90489830004286,18.57089329993894,0 73.90489830004286,18.57089329993894,0 73.90489499998301,18.57080169996674,0 73.90489796512409,18.57076257792751,0 73.90490170000693,18.57071329981291,0 73.90490246722244,18.57070639504572,0 73.90490670000898,18.57066829997737,0 73.90490670000898,18.57066829997737,0 73.90490670000898,18.57066829997737,0 73.90491497551918,18.57075304904367,0 73.90491499999216,18.57075329997005,0 73.90491500004507,18.57089169994135,0 73.90491408247181,18.57095555000109,0 73.90491330004032,18.57101000018892,0 73.90490234916211,18.57112488848535,0 73.90490169991307,18.57113169999594,0 73.90490979697502,18.57124388681104,0 73.90490999999915,18.57124669995931,0 73.9049333000907,18.57136330002781,0 73.9049333000907,18.57136330002781,0 73.90494000002226,18.57148670017054,0 73.90494000002226,18.57148670017054,0 73.9049495591012,18.57158382094326,0 73.90494999992615,18.57158830025397,0 73.90494173474727,18.57162962575981,0 73.90494000004129,18.57163830002656,0 73.90488173611971,18.5716499927461,0 73.90488169978823,18.57164999997342,0 73.90477956157976,18.57164012205507,0 73.90477829997106,18.57164000007965,0 73.90467500000156,18.57160169997778,0 73.90459268561432,18.57158025681484,0 73.90459170002305,18.57158000001331,0 73.90459170002305,18.57158000001331,0 73.90459170002305,18.57158000001331,0 73.90456830005368,18.5714533000177,0 73.90456830005368,18.5714533000177,0 73.90455499999936,18.57133829999979,0 73.90455499999936,18.57133829999979,0 73.90453838029541,18.57121230863565,0 73.90453829992708,18.57121170006399,0 73.90453718623378,18.57119889279868,0 73.90452669993454,18.57107830005747,0 73.90452669993454,18.57107830005747,0 73.90451418867249,18.57099072118186,0 73.90451170002484,18.57097329999095,0 73.90451170002484,18.57097329999095,0 73.90449670001838,18.57088829979069,0 73.90449670001838,18.57088829979069,0 73.90449330165627,18.57078505060272,0 73.90449329999075,18.57078500001169,0 73.90448923505467,18.57072784748418,0 73.90448500005265,18.5706682997878,0 73.90448500005265,18.5706682997878,0 73.90448920596967,18.57056037872382,0 73.90449000005361,18.57054000004775,0 73.90449000005361,18.57054000004775,0 73.90449329996179,18.57045670003068,0 73.90449329996179,18.57045670003068,0 73.90449329996179,18.57045670003068,0 73.90449329996179,18.57045670003068,0 73.90449329996179,18.57045670003068,0 73.90449329996179,18.57045670003068,0 73.90449329996179,18.57045670003068,0 73.90449329996179,18.57045670003068,0 73.90448829996335,18.5703766999999,0 73.90448829997446,18.5703766999682,0 73.90456500000845,18.57036170006871,0 73.90466170004208,18.57037499997146,0 73.90466170004208,18.57037499997146,0 73.90480500016248,18.57039329996395,0 73.90480500016248,18.57039329996395,0 73.90480500016248,18.57039329996395,0 73.90480500016248,18.57039329996395,0 73.90490829995902,18.57038830002904,0 73.90490829995902,18.57038830002904,0 73.9050017000196,18.57037999996231,0 73.9050017000196,18.57037999996231,0 73.90511169998098,18.57038170005667,0 73.90511169998098,18.57038170005667,0 73.90521000000018,18.57037499995263,0 73.90521000000018,18.57037499995263,0 73.90536663500323,18.57037415567877,0 73.9054366999962,18.57035669979706,0 73.9054366999962,18.57035669979706,0 73.90546330004068,18.57030669999592,0 73.90545743456931,18.57026658021542,0 73.90545329995994,18.57023829995983,0 73.90545329995994,18.57023829995983,0 73.90544500003823,18.57014499996296,0 73.90544500003823,18.57014499996296,0 73.90544329997037,18.57005329998388,0 73.90544329997037,18.57005329998388,0 73.90545327405957,18.56994857143822,0 73.90545503799288,18.56993512208543,0 73.90546670024496,18.56984669990927,0 73.90546670024496,18.56984669990927,0 73.90546829992854,18.5697566999652,0 73.90546829991317,18.56965463213989,0 73.90546830004467,18.56965170002666,0 73.90547638123148,18.56959363141013,0 73.90548500001525,18.5695316998287,0 73.90548500001525,18.5695316998287,0 73.90549670002423,18.56939829978104,0 73.90549670002423,18.56939829978104,0 73.90551655491765,18.56927093138402,0 73.90551670006482,18.569270000057,0 73.90551456497438,18.569248649171,0 73.90550669999831,18.56916999982592,0 73.90554329999347,18.56910169998228,0 73.90554329999347,18.56910169998228,0 73.90561268793586,18.56907897090714,0 73.90562999996355,18.56907329999063,0 73.90562999996355,18.56907329999063,0 73.90573500023881,18.56907170000385,0 73.90573500023881,18.56907170000385,0 73.9058250000206,18.56906830007383,0 73.90591670000261,18.56906169993057,0 73.90605170019408,18.56907330005394,0 73.90606618984441,18.56908340113916,0 73.9060900001876,18.5690999999855,0 73.90615999977491,18.56910000000889,0 73.90615263118494,18.56909762963414,0 
			</coordinates>
		</LineString>
	</Placemark>
	<Placemark id="00F372EBC63BE4DE954B">
		<name>Start point</name>
		<LookAt>
			<longitude>73.90095138402195</longitude>
			<latitude>18.57218511884237</latitude>
			<altitude>588.1432322067214</altitude>
			<heading>0.7435107279238862</heading>
			<tilt>0</tilt>
			<gx:fovy>35</gx:fovy>
			<range>25.01882495570953</range>
			<altitudeMode>absolute</altitudeMode>
		</LookAt>
		<styleUrl>#__managed_style_0AF95E17B03ED1C8FE4D</styleUrl>
		<Point>
			<coordinates>73.90095138402195,18.57218511884237,588.1432322067214</coordinates>
		</Point>
	</Placemark>
	<Placemark id="0F93554AED3BE4DF8266">
		<name>End</name>
		<LookAt>
			<longitude>73.90615814978615</longitude>
			<latitude>18.56909218466412</latitude>
			<altitude>586.9816673534885</altitude>
			<heading>0.7435107268204172</heading>
			<tilt>0</tilt>
			<gx:fovy>35</gx:fovy>
			<range>167.8938478870987</range>
			<altitudeMode>absolute</altitudeMode>
		</LookAt>
		<styleUrl>#__managed_style_0AF95E17B03ED1C8FE4D</styleUrl>
		<Point>
			<coordinates>73.90615814978615,18.56909218466412,586.9816673534885</coordinates>
		</Point>
	</Placemark>
</Document>
</kml>
