<?xml version="1.0" encoding="UTF-8"?>
<kml xmlns="http://www.opengis.net/kml/2.2" xmlns:gx="http://www.google.com/kml/ext/2.2" xmlns:kml="http://www.opengis.net/kml/2.2" xmlns:atom="http://www.w3.org/2005/Atom">
<Document>
	<name>CCD chowk to konarnagar gate no.3</name>
	<gx:CascadingStyle kml:id="__managed_style_1561365CA93ED1E3EDA3">
		<Style>
			<IconStyle>
				<Icon>
					<href>https://earth.google.com/earth/document/icon?color=1976d2&amp;id=2000&amp;scale=4</href>
				</Icon>
				<hotSpot x="64" y="128" xunits="pixels" yunits="insetPixels"/>
			</IconStyle>
			<LabelStyle>
			</LabelStyle>
			<LineStyle>
				<color>ff2dc0fb</color>
				<width>1.33333</width>
			</LineStyle>
			<PolyStyle>
				<color>40ffffff</color>
			</PolyStyle>
			<BalloonStyle>
				<displayMode>hide</displayMode>
			</BalloonStyle>
		</Style>
	</gx:CascadingStyle>
	<gx:CascadingStyle kml:id="__managed_style_265DDB472A3ED1E1DBF7">
		<Style>
			<IconStyle>
				<scale>1.2</scale>
				<Icon>
					<href>https://earth.google.com/earth/document/icon?color=1976d2&amp;id=2000&amp;scale=4</href>
				</Icon>
				<hotSpot x="64" y="128" xunits="pixels" yunits="insetPixels"/>
			</IconStyle>
			<LabelStyle>
			</LabelStyle>
			<LineStyle>
				<color>ff2dc0fb</color>
				<width>1.9995</width>
			</LineStyle>
			<PolyStyle>
				<color>40ffffff</color>
			</PolyStyle>
			<BalloonStyle>
				<displayMode>hide</displayMode>
			</BalloonStyle>
		</Style>
	</gx:CascadingStyle>
	<gx:CascadingStyle kml:id="__managed_style_2B6B41F1B03ED1E3EDA3">
		<Style>
			<IconStyle>
				<scale>1.2</scale>
				<Icon>
					<href>https://earth.google.com/earth/document/icon?color=1976d2&amp;id=2000&amp;scale=4</href>
				</Icon>
				<hotSpot x="64" y="128" xunits="pixels" yunits="insetPixels"/>
			</IconStyle>
			<LabelStyle>
			</LabelStyle>
			<LineStyle>
				<color>ff2dc0fb</color>
				<width>2</width>
			</LineStyle>
			<PolyStyle>
				<color>40ffffff</color>
			</PolyStyle>
			<BalloonStyle>
				<displayMode>hide</displayMode>
			</BalloonStyle>
		</Style>
	</gx:CascadingStyle>
	<gx:CascadingStyle kml:id="__managed_style_1A67FF0C5D3ED1E1DBF7">
		<Style>
			<IconStyle>
				<Icon>
					<href>https://earth.google.com/earth/document/icon?color=1976d2&amp;id=2000&amp;scale=4</href>
				</Icon>
				<hotSpot x="64" y="128" xunits="pixels" yunits="insetPixels"/>
			</IconStyle>
			<LabelStyle>
			</LabelStyle>
			<LineStyle>
				<color>ff2dc0fb</color>
				<width>1.333</width>
			</LineStyle>
			<PolyStyle>
				<color>40ffffff</color>
			</PolyStyle>
			<BalloonStyle>
				<displayMode>hide</displayMode>
			</BalloonStyle>
		</Style>
	</gx:CascadingStyle>
	<StyleMap id="__managed_style_023CA620953ED1E3EDA3">
		<Pair>
			<key>normal</key>
			<styleUrl>#__managed_style_1561365CA93ED1E3EDA3</styleUrl>
		</Pair>
		<Pair>
			<key>highlight</key>
			<styleUrl>#__managed_style_2B6B41F1B03ED1E3EDA3</styleUrl>
		</Pair>
	</StyleMap>
	<StyleMap id="__managed_style_065FABE24F3ED1E1DBF7">
		<Pair>
			<key>normal</key>
			<styleUrl>#__managed_style_1A67FF0C5D3ED1E1DBF7</styleUrl>
		</Pair>
		<Pair>
			<key>highlight</key>
			<styleUrl>#__managed_style_265DDB472A3ED1E1DBF7</styleUrl>
		</Pair>
	</StyleMap>
	<Placemark id="04EA5365A93C56B7D52C">
		<name>9CCD chowk to konarnagar gate no.3,10CCD chowk datta mandir to symbiosis college</name>
		<LookAt>
			<longitude>73.9091483</longitude>
			<latitude>18.5684117</latitude>
			<altitude>589.7312668319009</altitude>
			<heading>0</heading>
			<tilt>0</tilt>
			<gx:fovy>35</gx:fovy>
			<range>500</range>
			<altitudeMode>absolute</altitudeMode>
		</LookAt>
		<styleUrl>#__managed_style_065FABE24F3ED1E1DBF7</styleUrl>
		<LineString>
			<coordinates>
				73.91378830001317,18.56529830006659,0 73.91378830001317,18.56529830006659,0 73.91378830001317,18.56529830006659,0 73.91378830001317,18.56529830006659,0 73.91378830001317,18.56529830006659,0 73.91378830001317,18.56529830006659,0 73.9132917000728,18.56520299991714,0 73.9130836765204,18.56515009566948,0 73.91308330005921,18.56515000000331,0 73.91308330005921,18.56515000000331,0 73.91308330005921,18.56515000000331,0 73.91288669757698,18.5651730429648,0 73.91287000001263,18.56517499997136,0 73.91287000001263,18.56517499997136,0 73.91281962687894,18.56517630286982,0 73.91267694075879,18.5651799936642,0 73.91267670001842,18.56517999996135,0 73.91267670001842,18.56517999996135,0 73.91257793353185,18.56517671918064,0 73.91247500003001,18.56517330000275,0 73.91247500003001,18.56517330000275,0 73.91247500003001,18.56517330000275,0 73.91228859344795,18.56516357609511,0 73.9122833000704,18.56516330004345,0 73.9122833000704,18.56516330004345,0 73.91213233330359,18.56515847986102,0 73.91212669979814,18.56515829995751,0 73.91212669979814,18.56515829995751,0 73.91203786210086,18.56515401082645,0 73.91199000003071,18.56515170002368,0 73.91199000003071,18.56515170002368,0 73.91199000003071,18.56515170002368,0 73.91186460549534,18.56515406456613,0 73.91181500476726,18.56515499994207,0 73.91181500001487,18.56515499998434,0 73.91181500001487,18.56515499998434,0 73.9117732677062,18.56515186104825,0 73.91157463933381,18.5651369210566,0 73.91157170004082,18.56513669996946,0 73.91157170004082,18.56513669996946,0 73.91149466127978,18.5651304938536,0 73.91134357493792,18.56511832211606,0 73.9113432998205,18.56511829990555,0 73.9113432998205,18.56511829990555,0 73.91121157478874,18.56509966094044,0 73.91114330022984,18.56508999998082,0 73.91114330022984,18.56508999998082,0 73.91114299407754,18.56508994233195,0 73.91100169978239,18.56506330001899,0 73.91100169978239,18.56506330001899,0 73.91095586874418,18.56498969533826,0 73.91095499994259,18.5649883000589,0 73.91095499994259,18.5649883000589,0 73.91095499994259,18.5649883000589,0 73.91095499999354,18.56485830541963,0 73.91095499999045,18.56485330005036,0 73.91095499999045,18.56485330005036,0 73.91095499999045,18.56485330005036,0 73.91096696721539,18.56469439645453,0 73.91096829996468,18.5646767000678,0 73.91096829996468,18.5646767000678,0 73.91096829996468,18.5646767000678,0 73.91096829996468,18.5646767000678,0 73.91097714729382,18.56454686518739,0 73.91098000003643,18.56450499998434,0 73.91098000003643,18.56450499998434,0 73.91098000003643,18.56450499998434,0 73.91098058044555,18.56449750638271,0 73.91099275296862,18.56434036299059,0 73.91099330011134,18.56433329979215,0 73.91099330011134,18.56433329979215,0 73.91099483522866,18.564270855215,0 73.91099670003092,18.56419499997961,0 73.91099670003092,18.56419499997961,0 73.91099670003092,18.56419499997961,0 73.91097023577353,18.56411851830555,0 73.91096669993041,18.56410830001963,0 73.91096669993041,18.56410830001963,0 73.91096669993041,18.56410830001963,0 73.91096669993041,18.56410830001963,0 73.91096669993041,18.56410830001963,0 73.9109654741639,18.56410981982077,0 73.91092529111,18.56415963921275,0 73.91092499997049,18.56416000020655,0 73.91092499997049,18.56416000020655,0 73.91090514284149,18.56422453544863,0 73.91090499995884,18.5642249997811,0 73.91090499995884,18.5642249997811,0 73.91089582594759,18.56434728884885,0 73.91089500005396,18.56435829996285,0 73.91089500005396,18.56435829996285,0 73.91089497651427,18.56435951315428,0 73.91089181868466,18.56452218452524,0 73.91089170005344,18.56452829999636,0 73.91089170005344,18.56452829999636,0 73.91088519816228,18.5646464388284,0 73.9108817000437,18.56470999996286,0 73.9108817000437,18.56470999996286,0 73.91088124963116,18.56471266172066,0 73.91085829997436,18.56484829995432,0 73.91085829997436,18.56484829995432,0 73.91085527515948,18.56489720057484,0 73.91085169997352,18.56495499999122,0 73.91085169997352,18.56495499999122,0 73.91083330004717,18.56501830001778,0 73.91081534486945,18.56503712737052,0 73.91080237068901,18.56512418894332,0 73.91079669999465,18.56525500022544,0 73.91079669999465,18.56525500022544,0 73.91079669999465,18.56525500022544,0 73.91079669999465,18.56525500022544,0 73.91079669999465,18.56525500022544,0 73.91079669999465,18.56525500022544,0 73.91079669999465,18.56525500022544,0 73.91079669999465,18.56525500022544,0 73.91079669999465,18.56525500022544,0 73.91080080888953,18.56533257177231,0 73.91080499997784,18.56541170001337,0 73.91080499997784,18.56541170001337,0 73.91080499997784,18.56541170001337,0 73.91081498047285,18.56556639637334,0 73.91081500001532,18.56556670003082,0 73.91081500001532,18.56556670003082,0 73.91081444845562,18.56562834022029,0 73.91081330327307,18.5657563335943,0 73.91081329998626,18.56575669996744,0 73.91081329998626,18.56575669996744,0 73.91081329998626,18.56575669996744,0 73.9107842329197,18.56592691232057,0 73.91078000004826,18.56595170003053,0 73.91078000004826,18.56595170003053,0 73.91078000004826,18.56595170003053,0 73.91078622370785,18.56604830183212,0 73.91079169820398,18.56613327056226,0 73.91079169995834,18.56613330002087,0 73.91079169995834,18.56613330002087,0 73.91078763000539,18.56619243578146,0 73.91078000496344,18.56630322694728,0 73.91078000001113,18.56630330020285,0 73.91078000001113,18.56630330020285,0 73.91078000001113,18.56630330020285,0 73.91078000001113,18.56630330020285,0 73.91078000001113,18.56630330020285,0 73.91078400727397,18.56653307065092,0 73.91078500000717,18.56658999992849,0 73.91078500000717,18.56658999992849,0 73.91078500000717,18.56658999992849,0 73.91078236237479,18.56671205319676,0 73.91067509005832,18.56668137876654,0 73.91050553899005,18.56662935725345,0 73.91024369631357,18.56677679882633,0 73.9099766692604,18.56693463099792,0 73.90963208378406,18.56703844871485,0 73.90996966420121,18.56697522257005,0 73.91021638753392,18.56681960880614,0 73.91052217332359,18.56667853212932,0 73.91079325118145,18.56676566058258,0 73.91079330005967,18.56676669996067,0 73.91079330005967,18.56676669996067,0 73.91079477009511,18.56679440455276,0 73.91080168944298,18.56692480261418,0 73.91080169999145,18.5669249999674,0 73.91080169999145,18.5669249999674,0 73.9108021843828,18.56697646527179,0 73.91080330001351,18.56709499944459,0 73.91080330001351,18.56709499995177,0 73.91080330001351,18.56709499995177,0 73.91081083045934,18.56715720710234,0 73.91082659845701,18.56728746130835,0 73.91082670001175,18.56728830001291,0 73.91082670001175,18.56728830001291,0 73.91083367148741,18.56737660621303,0 73.91084166773557,18.56747789120394,0 73.91084170002529,18.56747829994775,0 73.91084170002529,18.56747829994775,0 73.91084170002529,18.56747829994775,0 73.91086500003944,18.56766170002923,0 73.91086500003944,18.56766170002923,0 73.91087316772942,18.56774789643952,0 73.91088000004532,18.56782000002074,0 73.91088000004532,18.56782000002074,0 73.91088000004532,18.56782000002074,0 73.91089169995071,18.56796000002645,0 73.91089169995071,18.56796000002645,0 73.91089169995071,18.56796000002645,0 73.91088845669604,18.56809039614303,0 73.91088830000058,18.56809669999429,0 73.91088830000058,18.56809669999429,0 73.91086477945291,18.56814785574367,0 73.91084999997997,18.56818000001481,0 73.91084999997997,18.56818000001481,0 73.91071499997915,18.56821499977599,0 73.91071499997915,18.56821499977599,0 73.91071499997915,18.56821499977599,0 73.91050855968255,18.56822290702109,0 73.91049830005868,18.56822330001295,0 73.91049830005868,18.56822330001295,0 73.9104129493262,18.56822329993083,0 73.91023800335539,18.56822330008398,0 73.91023669981725,18.56822330004157,0 73.91023669981725,18.56822330004157,0 73.91023669981725,18.56822330004157,0 73.90998177049762,18.56824134118004,0 73.90997670003095,18.56824170004293,0 73.90997670003095,18.56824170004293,0 73.90997670003095,18.56824170004293,0 73.90973597377489,18.56826947614455,0 73.90971670002723,18.56827169997542,0 73.90971670002723,18.56827169997542,0 73.90947258275649,18.56830456196959,0 73.90945670002316,18.56830669991297,0 73.90945670002316,18.56830669991297,0 73.9093907895172,18.5683119729771,0 73.9092086807162,18.56832654140326,0 73.9092066999907,18.5683266999254,0 73.9092066999907,18.5683266999254,0 73.90919879905842,18.56832661936285,0 73.90904417508222,18.56832504248904,0 73.90903999981833,18.5683249999746,0 73.90903999981833,18.5683249999746,0 73.9090100522957,18.56832586412683,0 73.90887019629712,18.56832989923398,0 73.90886669991325,18.56833000006227,0 73.90886669991325,18.56833000006227,0 73.90886669991325,18.56833000006227,0 73.90874375248151,18.56834823290634,0 73.90874329993811,18.56834829996983,0 73.90874329993811,18.56834829996983,0 73.90874329993811,18.56834829996983,0 73.90874329993811,18.56834829996983,0 73.90874329993811,18.56834829996983,0 73.90874417787697,18.56838444872582,0 73.90874499998762,18.56841829997273,0 73.90874499998762,18.56841829997273,0 73.90874499998762,18.56841829997273,0 73.9087663715199,18.56848231605858,0 73.90876670005692,18.5684832997731,0 73.90876670005692,18.5684832997731,0 73.90876670005692,18.5684832997731,0 73.90876316677051,18.56855059878371,0 73.90875830309284,18.56864324142344,0 73.90878669997808,18.56879830022002,0 73.90878669997808,18.56879830022002,0 73.90878669997808,18.56879830022002,0 73.90878669997808,18.56879830022002,0 73.90878669997808,18.56879830022002,0 73.90878669997808,18.56879830022002,0 73.90878669997808,18.56879830022002,0 73.90878669997808,18.56879830022002,0 73.90878669997808,18.56879830022002,0 73.90878669997808,18.56879830022002,0 73.90878669997808,18.56879830022002,0 73.90878669997808,18.56879830022002,0 73.90878669997808,18.56879830022002,0 73.90878669997808,18.56879830022002,0 73.90878669997808,18.56879830022002,0 73.90878669997808,18.56879830022002,0 73.90882249258335,18.56889020605811,0 73.9088804972872,18.56898379189394,0 73.9089492151703,18.56910278790677,0 73.90895074788756,18.56910702032639,0 73.90899830004956,18.56923169998949,0 73.90899830004956,18.56923169998949,0 73.90899830004956,18.56923169998949,0 73.90899830004956,18.56923169998949,0 73.90899830004956,18.56923169998949,0 73.90899830004956,18.56923169998949,0 73.90900163935869,18.56910559240443,0 73.90900169998234,18.56910329997068,0 73.90899090915238,18.56905509787715,0 73.90897000169109,18.56896170685393,0 73.9089700000477,18.5689617000057,0 73.9089700000477,18.5689617000057,0 73.90894669998178,18.56880829997408,0 73.90894669998178,18.56880829997408,0 73.90894669998178,18.56880829997408,0 73.90889983026977,18.56865619240034,0 73.90889329988438,18.56863500001629,0 73.90889329988438,18.56863500001629,0 73.90878078732237,18.56842646315861,0 73.90876830002924,18.56840669997016,0 73.90897999997337,18.56840830016072,0 73.90897999997337,18.56840830016072,0 73.90914830000206,18.56841169995752,0 
			</coordinates>
		</LineString>
	</Placemark>
	<Placemark id="0EC09A2D153ED1E3ED93">
		<name>Start point </name>
		<LookAt>
			<longitude>73.91380166015823</longitude>
			<latitude>18.56525208202388</latitude>
			<altitude>587.8784193999968</altitude>
			<heading>354.5278377389011</heading>
			<tilt>0</tilt>
			<gx:fovy>35</gx:fovy>
			<range>1344.113395153399</range>
			<altitudeMode>absolute</altitudeMode>
		</LookAt>
		<styleUrl>#__managed_style_023CA620953ED1E3EDA3</styleUrl>
		<Point>
			<coordinates>73.91380166015823,18.56525208202388,587.8784193999968</coordinates>
		</Point>
	</Placemark>
	<Placemark id="0E0337F9CB3ED1E42E36">
		<name>End point</name>
		<LookAt>
			<longitude>73.90914756231172</longitude>
			<latitude>18.56835575870193</latitude>
			<altitude>589.8786095033018</altitude>
			<heading>354.5263514184409</heading>
			<tilt>0</tilt>
			<gx:fovy>35</gx:fovy>
			<range>1342.113261039049</range>
			<altitudeMode>absolute</altitudeMode>
		</LookAt>
		<styleUrl>#__managed_style_023CA620953ED1E3EDA3</styleUrl>
		<Point>
			<coordinates>73.90914756231172,18.56835575870193,589.8786095033018</coordinates>
		</Point>
	</Placemark>
</Document>
</kml>
